[
    {
        "Altitude(m)": 571842.6678924451,
        "Argument of Periapsis(deg)": 0.013245982221427002,
        "Eccentricity": 0.0,
        "Inclination(deg)": 53.0,
        "Latitude(deg)": -53.1448406819206,
        "Longitude(deg)": 7.241928562078847,
        "Mean Anomaly(deg)": -90.72591426484482,
        "RAAN(deg)": 199.98028673705602,
        "Satellite Name": "Starlink Shell 1 895",
        "Satellite Number": 895,
        "Semi-Major Axis(m)": 6931778.249405717,
        "Time(s)": 380
    },
    {
        "Altitude(m)": 571844.8070825597,
        "Argument of Periapsis(deg)": 0.013594560700938237,
        "Eccentricity": 0.0,
        "Inclination(deg)": 53.0,
        "Latitude(deg)": -53.15060164075083,
        "Longitude(deg)": 8.239267560678602,
        "Mean Anomaly(deg)": -90.09908306128818,
        "RAAN(deg)": 199.97976796697856,
        "Satellite Name": "Starlink Shell 1 895",
        "Satellite Number": 895,
        "Semi-Major Axis(m)": 6931778.249405717,
        "Time(s)": 390
    },
    {
        "Altitude(m)": 571843.4651548733,
        "Argument of Periapsis(deg)": 0.013943139180449475,
        "Eccentricity": 0.0,
        "Inclination(deg)": 53.0,
        "Latitude(deg)": -53.147308454625424,
        "Longitude(deg)": 9.236665856644038,
        "Mean Anomaly(deg)": -89.47225185773141,
        "RAAN(deg)": 199.97924919690107,
        "Satellite Name": "Starlink Shell 1 895",
        "Satellite Number": 895,
        "Semi-Major Axis(m)": 6931778.249405717,
        "Time(s)": 400
    },
    {
        "Altitude(m)": 571838.6426237136,
        "Argument of Periapsis(deg)": 0.014291717659960712,
        "Eccentricity": 0.0,
        "Inclination(deg)": 53.0,
        "Latitude(deg)": -53.13496356682871,
        "Longitude(deg)": 10.233687760805244,
        "Mean Anomaly(deg)": -88.84542065417475,
        "RAAN(deg)": 199.9787304268236,
        "Satellite Name": "Starlink Shell 1 895",
        "Satellite Number": 895,
        "Semi-Major Axis(m)": 6931778.249405717,
        "Time(s)": 410
    },
    {
        "Altitude(m)": 571830.3413928783,
        "Argument of Periapsis(deg)": 0.014640296139471948,
        "Eccentricity": 0.0,
        "Inclination(deg)": 53.0,
        "Latitude(deg)": -53.113576130245384,
        "Longitude(deg)": 11.229898206096806,
        "Mean Anomaly(deg)": -88.218589450618,
        "RAAN(deg)": 199.97821165674617,
        "Satellite Name": "Starlink Shell 1 895",
        "Satellite Number": 895,
        "Semi-Major Axis(m)": 6931778.249405717,
        "Time(s)": 420
    },
    {
        "Altitude(m)": 571818.5647548181,
        "Argument of Periapsis(deg)": 0.014988874618983185,
        "Eccentricity": 0.0,
        "Inclination(deg)": 53.0,
        "Latitude(deg)": -53.08316197384204,
        "Longitude(deg)": 12.224864547924362,
        "Mean Anomaly(deg)": -87.59175824706132,
        "RAAN(deg)": 199.97769288666865,
        "Satellite Name": "Starlink Shell 1 895",
        "Satellite Number": 895,
        "Semi-Major Axis(m)": 6931778.249405717,
        "Time(s)": 430
    },
    {
        "Altitude(m)": 571803.3173892059,
        "Argument of Periapsis(deg)": 0.015337453098494424,
        "Eccentricity": 0.0,
        "Inclination(deg)": 53.0,
        "Latitude(deg)": -53.043743544880066,
        "Longitude(deg)": 13.218158346774054,
        "Mean Anomaly(deg)": -86.96492704350456,
        "RAAN(deg)": 199.97717411659121,
        "Satellite Name": "Starlink Shell 1 895",
        "Satellite Number": 895,
        "Semi-Major Axis(m)": 6931778.249405717,
        "Time(s)": 440
    },
    {
        "Altitude(m)": 571784.6053609254,
        "Argument of Periapsis(deg)": 0.01568603157800566,
        "Eccentricity": 0.0,
        "Inclination(deg)": 53.0,
        "Latitude(deg)": -52.99534982735503,
        "Longitude(deg)": 14.209355610951555,
        "Mean Anomaly(deg)": -86.33809583994783,
        "RAAN(deg)": 199.97665534651375,
        "Satellite Name": "Starlink Shell 1 895",
        "Satellite Number": 895,
        "Semi-Major Axis(m)": 6931778.249405717,
        "Time(s)": 450
    },
    {
        "Altitude(m)": 571762.4361174558,
        "Argument of Periapsis(deg)": 0.0160346100575169,
        "Eccentricity": 0.0,
        "Inclination(deg)": 53.0,
        "Latitude(deg)": -52.93801623734964,
        "Longitude(deg)": 15.198038516331035,
        "Mean Anomaly(deg)": -85.71126463639114,
        "RAAN(deg)": 199.97613657643626,
        "Satellite Name": "Starlink Shell 1 895",
        "Satellite Number": 895,
        "Semi-Major Axis(m)": 6931778.249405717,
        "Time(s)": 460
    },
    {
        "Altitude(m)": 571736.818485649,
        "Argument of Periapsis(deg)": 0.016383188537028134,
        "Eccentricity": 0.0,
        "Inclination(deg)": 53.0,
        "Latitude(deg)": -52.87178449618277,
        "Longitude(deg)": 16.183797081852912,
        "Mean Anomaly(deg)": -85.08443343283439,
        "RAAN(deg)": 199.9756178063588,
        "Satellite Name": "Starlink Shell 1 895",
        "Satellite Number": 895,
        "Semi-Major Axis(m)": 6931778.249405717,
        "Time(s)": 470
    },
    {
        "Altitude(m)": 571707.7626679133,
        "Argument of Periapsis(deg)": 0.01673176701653937,
        "Eccentricity": 0.0,
        "Inclination(deg)": 53.0,
        "Latitude(deg)": -52.796702482412584,
        "Longitude(deg)": 17.166229280096527,
        "Mean Anomaly(deg)": -84.45760222927774,
        "RAAN(deg)": 199.9750990362813,
        "Satellite Name": "Starlink Shell 1 895",
        "Satellite Number": 895,
        "Semi-Major Axis(m)": 6931778.249405717,
        "Time(s)": 480
    },
    {
        "Altitude(m)": 571675.2802378082,
        "Argument of Periapsis(deg)": 0.017080345496050607,
        "Eccentricity": 0.0,
        "Inclination(deg)": 53.0,
        "Latitude(deg)": -52.7128240639015,
        "Longitude(deg)": 18.144942601558693,
        "Mean Anomaly(deg)": -83.83077102572096,
        "RAAN(deg)": 199.97458026620382,
        "Satellite Name": "Starlink Shell 1 895",
        "Satellite Number": 895,
        "Semi-Major Axis(m)": 6931778.249405717,
        "Time(s)": 490
    },
    {
        "Altitude(m)": 571639.3841350493,
        "Argument of Periapsis(deg)": 0.017428923975561842,
        "Eccentricity": 0.0,
        "Inclination(deg)": 53.0,
        "Latitude(deg)": -52.62020891130215,
        "Longitude(deg)": 19.11955555340043,
        "Mean Anomaly(deg)": -83.20393982216422,
        "RAAN(deg)": 199.97406149612635,
        "Satellite Name": "Starlink Shell 1 895",
        "Satellite Number": 895,
        "Semi-Major Axis(m)": 6931778.249405717,
        "Time(s)": 500
    },
    {
        "Altitude(m)": 571600.0886598903,
        "Argument of Periapsis(deg)": 0.01777750245507308,
        "Eccentricity": 0.0,
        "Inclination(deg)": 53.0,
        "Latitude(deg)": -52.5189222944444,
        "Longitude(deg)": 20.089697574257997,
        "Mean Anomaly(deg)": -82.57710861860757,
        "RAAN(deg)": 199.9735427260489,
        "Satellite Name": "Starlink Shell 1 895",
        "Satellite Number": 895,
        "Semi-Major Axis(m)": 6931778.249405717,
        "Time(s)": 510
    },
    {
        "Altitude(m)": 571557.4094669713,
        "Argument of Periapsis(deg)": 0.018126080934584315,
        "Eccentricity": 0.0,
        "Inclination(deg)": 53.0,
        "Latitude(deg)": -52.40903486319785,
        "Longitude(deg)": 21.05501038619538,
        "Mean Anomaly(deg)": -81.95027741505078,
        "RAAN(deg)": 199.9730239559714,
        "Satellite Name": "Starlink Shell 1 895",
        "Satellite Number": 895,
        "Semi-Major Axis(m)": 6931778.249405717,
        "Time(s)": 520
    },
    {
        "Altitude(m)": 571511.3635585121,
        "Argument of Periapsis(deg)": 0.018474659414095554,
        "Eccentricity": 0.0,
        "Inclination(deg)": 53.0,
        "Latitude(deg)": -52.29062241446029,
        "Longitude(deg)": 22.01514926726277,
        "Mean Anomaly(deg)": -81.32344621149413,
        "RAAN(deg)": 199.97250518589394,
        "Satellite Name": "Starlink Shell 1 895",
        "Satellite Number": 895,
        "Semi-Major Axis(m)": 6931778.249405717,
        "Time(s)": 530
    },
    {
        "Altitude(m)": 571461.9692769949,
        "Argument of Periapsis(deg)": 0.018823237893606792,
        "Eccentricity": 0.0,
        "Inclination(deg)": 53.0,
        "Latitude(deg)": -52.16376564706574,
        "Longitude(deg)": 22.96978272834819,
        "Mean Anomaly(deg)": -80.69661500793738,
        "RAAN(deg)": 199.97198641581647,
        "Satellite Name": "Starlink Shell 1 895",
        "Satellite Number": 895,
        "Semi-Major Axis(m)": 6931778.249405717,
        "Time(s)": 540
    },
    {
        "Altitude(m)": 571409.2462971846,
        "Argument of Periapsis(deg)": 0.019171816373118027,
        "Eccentricity": 0.0,
        "Inclination(deg)": 53.0,
        "Latitude(deg)": -52.02854990619261,
        "Longitude(deg)": 23.918593619562785,
        "Mean Anomaly(deg)": -80.06978380438072,
        "RAAN(deg)": 199.97146764573898,
        "Satellite Name": "Starlink Shell 1 895",
        "Satellite Number": 895,
        "Semi-Major Axis(m)": 6931778.249405717,
        "Time(s)": 550
    },
    {
        "Altitude(m)": 571353.2156176419,
        "Argument of Periapsis(deg)": 0.019520394852629266,
        "Eccentricity": 0.0,
        "Inclination(deg)": 53.0,
        "Latitude(deg)": -51.88506491926433,
        "Longitude(deg)": 24.861280150408884,
        "Mean Anomaly(deg)": -79.44295260082407,
        "RAAN(deg)": 199.97094887566155,
        "Satellite Name": "Starlink Shell 1 895",
        "Satellite Number": 895,
        "Semi-Major Axis(m)": 6931778.249405717,
        "Time(s)": 560
    }
]